{
    "links": {
        "self": "http://www.neowsapp.com/rest/v1/neo/3838241?api_key=iIulBulltgU6a56xZRHN4H3l9WmuAYTsLGpBGhQ2"
    },
    "id": "3838241",
    "neo_reference_id": "3838241",
    "name": "(2019 CF4)",
    "designation": "2019 CF4",
    "nasa_jpl_url": "http://ssd.jpl.nasa.gov/sbdb.cgi?sstr=3838241",
    "absolute_magnitude_h": 27.0,
    "estimated_diameter": {
        "kilometers": {
            "estimated_diameter_min": 0.0105816886,
            "estimated_diameter_max": 0.023661375
        },
        "meters": {
            "estimated_diameter_min": 10.5816885933,
            "estimated_diameter_max": 23.6613750114
        },
        "miles": {
            "estimated_diameter_min": 0.0065751544,
            "estimated_diameter_max": 0.0147024923
        },
        "feet": {
            "estimated_diameter_min": 34.7168272045,
            "estimated_diameter_max": 77.6291855923
        }
    },
    "is_potentially_hazardous_asteroid": false,
    "close_approach_data": [
        {
            "close_approach_date": "2014-04-19",
            "close_approach_date_full": "2014-Apr-19 04:27",
            "epoch_date_close_approach": 1397881620000,
            "relative_velocity": {
                "kilometers_per_second": "12.2816165535",
                "kilometers_per_hour": "44213.8195926896",
                "miles_per_hour": "27472.7480685798"
            },
            "miss_distance": {
                "astronomical": "0.3166421763",
                "lunar": "123.1738065807",
                "kilometers": "47368995.126644481",
                "miles": "29433728.7115605978"
            },
            "orbiting_body": "Earth"
        },
        {
            "close_approach_date": "2019-02-26",
            "close_approach_date_full": "2019-Feb-26 10:24",
            "epoch_date_close_approach": 1551176640000,
            "relative_velocity": {
                "kilometers_per_second": "3.7236620402",
                "kilometers_per_hour": "13405.1833447501",
                "miles_per_hour": "8329.4596177421"
            },
            "miss_distance": {
                "astronomical": "0.039991322",
                "lunar": "15.556624258",
                "kilometers": "5982616.58968414",
                "miles": "3717425.569515532"
            },
            "orbiting_body": "Earth"
        },
        {
            "close_approach_date": "2024-01-22",
            "close_approach_date_full": "2024-Jan-22 09:21",
            "epoch_date_close_approach": 1705915260000,
            "relative_velocity": {
                "kilometers_per_second": "15.2566606226",
                "kilometers_per_hour": "54923.978241225",
                "miles_per_hour": "34127.6241466101"
            },
            "miss_distance": {
                "astronomical": "0.4109098378",
                "lunar": "159.8439269042",
                "kilometers": "61471236.496925486",
                "miles": "38196455.1660282668"
            },
            "orbiting_body": "Earth"
        }
    ],
    "orbital_data": {
        "orbit_id": "4",
        "orbit_determination_date": "2019-03-04 07:06:05",
        "first_observation_date": "2019-02-04",
        "last_observation_date": "2019-03-03",
        "data_arc_in_days": 27,
        "observations_used": 27,
        "orbit_uncertainty": "7",
        "minimum_orbit_intersection": ".0382825",
        "jupiter_tisserand_invariant": "4.730",
        "epoch_osculation": "2459000.5",
        "eccentricity": ".2642771869861613",
        "semi_major_axis": "1.393826954666888",
        "inclination": "3.269597120918182",
        "ascending_node_longitude": "324.3217518401318",
        "orbital_period": "601.0515414004678",
        "perihelion_distance": "1.025470287942035",
        "perihelion_argument": "199.2696247596555",
        "aphelion_distance": "1.76218362139174",
        "perihelion_time": "2459147.399607365439",
        "mean_anomaly": "272.0144363521023",
        "mean_motion": ".5989502982742367",
        "equinox": "J2000",
        "orbit_class": {
            "orbit_class_type": "AMO",
            "orbit_class_description": "Near-Earth asteroid orbits similar to that of 1221 Amor",
            "orbit_class_range": "1.017 AU < q (perihelion) < 1.3 AU"
        }
    },
    "is_sentry_object": false
}